{"type":"FeatureCollection", "features": [
{"type":"Feature","geometry":{"type":"Point","coordinates":[125.4115285,38.7367448]},"properties":{"@id":"node/32539072","@relations":[{"role":"admin_centre","rel":10879003,"reltags":{"admin_level":"6","boundary":"administrative","fixme":"There are reports that this administrative unit have already been abolished as of year 2010. Verification and update on its status would be necessary.","name":"남포특급시","name:en":"Nampo","name:ja":"南浦特級市","name:ko":"남포특급시","name:ko_hanja":"南浦特級市","name:ru":"Нампхо(особый город)","name:zh":"南浦特級市","type":"boundary","wikidata":"Q109386"}}]},"id":"node/32539072"},
{"type":"Feature","geometry":{"type":"Point","coordinates":[127.453564,39.1532956]},"properties":{"@id":"node/33259203","@relations":[{"role":"admin_centre","rel":8318609,"reltags":{"admin_level":"6","boundary":"administrative","name":"원산시","name:cs":"Wonsan","name:en":"Wonsan","name:eo":"Vonsano","name:ja":"元山市","name:ko":"원산시","name:ko_hanja":"元山市","name:ru":"Вонсан","name:zh":"元山市","type":"boundary","wikidata":"Q109374"}}]},"id":"node/33259203"},
{"type":"Feature","geometry":{"type":"Point","coordinates":[125.7555447,38.50935]},"properties":{"@id":"node/256594216","@relations":[{"role":"admin_centre","rel":5455246,"reltags":{"admin_level":"6","boundary":"administrative","name":"사리원시","name:cs":"Sariwon","name:el":"Σάριουον","name:en":"Sariwon","name:ja":"沙里院市","name:ko":"사리원시","name:ko_hanja":"沙里院市","name:ru":"Саривон","name:zh":"沙里院市","type":"boundary","wikidata":"Q505807"}}]},"id":"node/256594216"},
{"type":"Feature","geometry":{"type":"Point","coordinates":[125.7140086,38.0401144]},"properties":{"@id":"node/256594759","@relations":[{"role":"admin_centre","rel":5469296,"reltags":{"admin_level":"6","boundary":"administrative","name":"해주시","name:cs":"Hedžu","name:el":"Χέτζου","name:en":"Haeju","name:ja":"海州市","name:ko":"해주시","name:ko_hanja":"海州市","name:ru":"Хэджу","name:zh":"海州市","type":"boundary","wikidata":"Q714865","wikipedia":"ko:해주시"}}]},"id":"node/256594759"},
{"type":"Feature","geometry":{"type":"Point","coordinates":[127.5439794,39.915463]},"properties":{"@id":"node/256629919","@relations":[{"role":"label","rel":8400379,"reltags":{"admin_level":"6","boundary":"administrative","name":"함흥시","name:en":"Hamhung","name:ja":"咸興市","name:ko":"함흥시","name:ko-Hani":"咸興市","name:zh":"咸興市","type":"boundary","wikidata":"Q27245589"}}]},"id":"node/256629919"},
{"type":"Feature","geometry":{"type":"Point","coordinates":[127.3598714,39.2370094]},"properties":{"@id":"node/256630332","@relations":[{"role":"admin_centre","rel":8319793,"reltags":{"admin_level":"6","boundary":"administrative","name":"문천시","name:en":"Munchon","name:ja":"文川市","name:ko":"문천시","name:ko_hanja":"文川市","name:ru":"Мунчхон","name:zh":"文川市","type":"boundary","wikidata":"Q494606"}}]},"id":"node/256630332"},
{"type":"Feature","geometry":{"type":"Point","coordinates":[129.7542469,42.4342802]},"properties":{"@id":"node/256632365","@relations":[{"role":"label","rel":8420622,"reltags":{"admin_level":"6","boundary":"administrative","name":"회령시","name:en":"Hoiryŏng","name:ja":"会寧市","name:ko":"회령시","name:ko-Hani":"會寧市","name:ru":"Хверён","name:zh":"会宁市","name:zh-Hant":"會寧市","type":"boundary","wikidata":"Q27248042"}}]},"id":"node/256632365"},
{"type":"Feature","geometry":{"type":"Point","coordinates":[124.3977559,40.0940758]},"properties":{"@id":"node/256633232","@relations":[{"role":"admin_centre","rel":356539,"reltags":{"admin_level":"6","boundary":"administrative","name":"신의주시","name:cs":"Sinuidžu","name:en":"Sinuiju","name:eo":"Sinviĵuo","name:ja":"新義州市","name:ko":"신의주시","name:ko_hanja":"新義州市","name:ru":"Синыйджу","name:yue":"新義州市","name:zh":"新义州市","name:zh-Hant":"新義州市","type":"boundary","wikidata":"Q156243"}}]},"id":"node/256633232"},
{"type":"Feature","geometry":{"type":"Point","coordinates":[125.6460599,38.7535598]},"properties":{"@id":"node/262410966","@relations":[{"role":"admin_centre","rel":5455401,"reltags":{"admin_level":"6","boundary":"administrative","name":"송림시","name:en":"Songnim","name:ja":"松林市","name:ko":"송림시","name:ko_hanja":"松林市","name:ru":"Сонним","name:zh":"松林市","type":"boundary","wikidata":"Q505930"}}]},"id":"node/262410966"},
{"type":"Feature","geometry":{"type":"Point","coordinates":[125.5143922,38.83482]},"properties":{"@id":"node/262411049","@relations":[{"role":"admin_centre","rel":5454210,"reltags":{"admin_level":"6","boundary":"administrative","name":"대안군","name:en":"Taean County","name:ja":"大安郡","name:ko":"대안군","name:ko_hanja":"大安郡","name:ru":"уезд Тэан","name:zh":"大安郡","type":"boundary","wikidata":"Q714477"}}]},"id":"node/262411049"},
{"type":"Feature","geometry":{"type":"Point","coordinates":[125.6396795,38.8983453]},"properties":{"@id":"node/262411176","@relations":[{"role":"admin_centre","rel":3859517,"reltags":{"admin_level":"6","boundary":"administrative","name":"강남군","name:en":"Kangnam County","name:ja":"江南郡","name:ko":"강남군","name:ko_hanja":"江南郡","name:ru":"уезд Каннам","name:zh":"江南郡","type":"boundary","wikidata":"Q196331"}}]},"id":"node/262411176"},
{"type":"Feature","geometry":{"type":"Point","coordinates":[125.7931647,38.408138]},"properties":{"@id":"node/262411443","@relations":[{"role":"admin_centre","rel":5456099,"reltags":{"admin_level":"6","boundary":"administrative","name":"은파군","name:en":"Unpa County","name:ja":"銀波郡","name:ko":"은파군","name:ko_hanja":"銀波郡","name:ru":"уезд Ынпха","name:zh":"银波郡","name:zh-Hant":"銀波郡","type":"boundary"}}]},"id":"node/262411443"},
{"type":"Feature","geometry":{"type":"Point","coordinates":[125.7667344,38.2350043]},"properties":{"@id":"node/262411583","@relations":[{"role":"admin_centre","rel":5469380,"reltags":{"admin_level":"6","boundary":"administrative","name":"신원군","name:en":"Sinwon County","name:ja":"新院郡","name:ko":"신원군","name:ko_hanja":"新院郡","name:ru":"уезд Синвон","name:zh":"新院郡","type":"boundary","wikidata":"Q705099"}}]},"id":"node/262411583"},
{"type":"Feature","geometry":{"type":"Point","coordinates":[125.6164868,38.3981118]},"properties":{"@id":"node/262411914","@relations":[{"role":"admin_centre","rel":5469394,"reltags":{"admin_level":"6","boundary":"administrative","name":"재령군","name:en":"Chaeryong County","name:ja":"載寧郡","name:ko":"재령군","name:ko_hanja":"載寧郡","name:ru":"уезд Чэрён","name:zh":"載寧郡","type":"boundary","wikidata":"Q27245810"}}]},"id":"node/262411914"},
{"type":"Feature","geometry":{"type":"Point","coordinates":[125.4901879,38.3534289]},"properties":{"@id":"node/262412274","@relations":[{"role":"admin_centre","rel":5469393,"reltags":{"admin_level":"6","boundary":"administrative","name":"신천군","name:en":"Sinchon County","name:ja":"信川郡","name:ko":"신천군","name:ko_hanja":"信川郡","name:ru":"уезд Синчхон","name:zh":"信川郡","type":"boundary","wikidata":"Q704821"}}]},"id":"node/262412274"},
{"type":"Feature","geometry":{"type":"Point","coordinates":[125.328437,38.3570999]},"properties":{"@id":"node/262412431","@relations":[{"role":"admin_centre","rel":5469468,"reltags":{"admin_level":"6","boundary":"administrative","name":"삼천군","name:en":"Samchon County","name:ja":"三泉郡","name:ko":"삼천군","name:ko_hanja":"三泉郡","name:ru":"уезд Самчхон","name:zh":"三泉郡","type":"boundary"}}]},"id":"node/262412431"},
{"type":"Feature","geometry":{"type":"Point","coordinates":[125.0165097,38.4437604]},"properties":{"@id":"node/262412455","@relations":[{"role":"admin_centre","rel":5469504,"reltags":{"admin_level":"6","boundary":"administrative","name":"과일군","name:en":"Kwail County","name:ja":"クァイル郡","name:ko":"과일군","name:ko-Kore":"과일郡","name:ru":"уезд Кваиль","name:yue":"瓜飴郡","name:zh":"瓜飴郡","type":"boundary","wikidata":"Q705091"}}]},"id":"node/262412455"},
{"type":"Feature","geometry":{"type":"Point","coordinates":[126.4758675,38.1618863]},"properties":{"@id":"node/262413142","@relations":[{"role":"admin_centre","rel":5456504,"reltags":{"admin_level":"6","boundary":"administrative","name":"금천군","name:en":"Kumchon County","name:ja":"金川郡","name:ko":"금천군","name:ko_hanja":"金川郡","name:ru":"уезд Кымчхон","name:zh":"金川郡","type":"boundary","wikidata":"Q705207"}}]},"id":"node/262413142"},
{"type":"Feature","geometry":{"type":"Point","coordinates":[126.2310784,38.4221853]},"properties":{"@id":"node/262413203","@relations":[{"role":"admin_centre","rel":5456274,"reltags":{"admin_level":"6","boundary":"administrative","name":"서흥군","name:en":"Sonhung County","name:ja":"瑞興郡","name:ko":"서흥군","name:ko_hanja":"瑞興郡","name:ru":"уезд Сохын","name:zh":"瑞興郡","type":"boundary","wikidata":"Q196270"}}]},"id":"node/262413203"},
{"type":"Feature","geometry":{"type":"Point","coordinates":[126.6705315,38.781447]},"properties":{"@id":"node/262413404","@relations":[{"role":"admin_centre","rel":5456248,"reltags":{"admin_level":"6","boundary":"administrative","name":"곡산군","name:ar":"محافظة كوكسان","name:en":"Koksan County","name:ja":"谷山郡","name:ko":"곡산군","name:ko_hanja":"谷山郡","name:no":"Koksan (Nord-Hwanghae)","name:pl":"Koksan","name:ru":"уезд Коксан","name:vi":"Koksan (huyện)","name:zh":"谷山郡","type":"boundary","wikidata":"Q213406","wikipedia":"ko:곡산군"}}]},"id":"node/262413404"},
{"type":"Feature","geometry":{"type":"Point","coordinates":[126.256656,38.8717163]},"properties":{"@id":"node/262413564","@relations":[{"role":"admin_centre","rel":5455437,"reltags":{"admin_level":"6","boundary":"administrative","name":"연산군","name:en":"Yonsan County","name:ja":"延山郡","name:ko":"연산군","name:ko_hanja":"延山郡","name:ru":"уезд Йонсан","name:zh":"延山郡","type":"boundary"}}]},"id":"node/262413564"},
{"type":"Feature","geometry":{"type":"Point","coordinates":[126.353988,38.7731498]},"properties":{"@id":"node/262413665","@relations":[{"role":"admin_centre","rel":5456206,"reltags":{"admin_level":"6","boundary":"administrative","name":"수안군","name:en":"Suan County","name:ja":"遂安郡","name:ko":"수안군","name:ko_hanja":"遂安郡","name:ru":"уезд Суан","name:zh":"遂安郡","name:zh-Hant":"遂安郡","type":"boundary"}}]},"id":"node/262413665"},
{"type":"Feature","geometry":{"type":"Point","coordinates":[125.36253,37.9341575]},"properties":{"@id":"node/264045740","@relations":[{"role":"admin_centre","rel":5469325,"reltags":{"admin_level":"6","boundary":"administrative","name":"옹진군","name:en":"Onjin County","name:ja":"甕津郡","name:ko":"옹진군","name:ko_hanja":"甕津郡","name:ru":"уезд Онджин","name:zh":"甕津郡","type":"boundary","wikidata":"Q483530"}}]},"id":"node/264045740"},
{"type":"Feature","geometry":{"type":"Point","coordinates":[126.3980895,38.3380279]},"properties":{"@id":"node/264047428","@relations":[{"role":"admin_centre","rel":5456500,"reltags":{"admin_level":"6","boundary":"administrative","name":"평산군","name:en":"Pyongsan County","name:ja":"平山郡","name:ko":"평산군","name:ko_hanja":"平山郡","name:ru":"уезд Пхёнсан","name:zh":"平山郡","type":"boundary"}}]},"id":"node/264047428"},
{"type":"Feature","geometry":{"type":"Point","coordinates":[128.1778371,41.4029448]},"properties":{"@id":"node/264048594","@relations":[{"role":"admin_centre","rel":6332276,"reltags":{"admin_level":"6","boundary":"administrative","name":"혜산시","name:cs":"Hjesan","name:en":"Hyesan","name:ja":"恵山市","name:ko":"혜산시","name:ko_hanja":"惠山市","name:ru":"Хесан","name:zh":"惠山市","type":"boundary","wikidata":"Q489829"}}]},"id":"node/264048594"},
{"type":"Feature","geometry":{"type":"Point","coordinates":[128.3247859,41.8058062]},"properties":{"@id":"node/264049134","@relations":[{"role":"admin_centre","rel":6125006,"reltags":{"admin_level":"6","boundary":"administrative","name":"삼지연시","name:en":"Samjiyon","name:ja":"三池淵市","name:ko":"삼지연시","name:ko_hanja":"三池淵市","name:ru":"Самджиён","name:zh":"三池渊市","type":"boundary","wikidata":"Q700618"}}]},"id":"node/264049134"},
{"type":"Feature","geometry":{"type":"Point","coordinates":[125.3016407,38.0859867]},"properties":{"@id":"node/264056989","@relations":[{"role":"admin_centre","rel":5469411,"reltags":{"admin_level":"6","boundary":"administrative","name":"태탄군","name:en":"Taetan County","name:ja":"苔灘郡","name:ko":"태탄군","name:ko_hanja":"苔灘郡","name:ru":"уезд Тхэтхан","name:zh":"苔灘郡","type":"boundary"}}]},"id":"node/264056989"},
{"type":"Feature","geometry":{"type":"Point","coordinates":[126.2876899,41.1547179]},"properties":{"@id":"node/264063426","@relations":[{"role":"admin_centre","rel":5475705,"reltags":{"admin_level":"6","boundary":"administrative","name":"만포시","name:en":"Manpo","name:eo":"Manpo","name:ja":"満浦市","name:ko":"만포시","name:ko_hanja":"滿浦市","name:pt":"Manpo","name:ru":"Манпхо","name:zh":"满浦市","name:zh-Hant":"滿浦市","type":"boundary","wikidata":"Q698064"}}]},"id":"node/264063426"},
{"type":"Feature","geometry":{"type":"Point","coordinates":[126.5975399,40.9659004]},"properties":{"@id":"node/264064059","@relations":[{"role":"admin_centre","rel":5475704,"reltags":{"admin_level":"6","boundary":"administrative","name":"강계시","name:cs":"Kanggje","name:en":"Kanggye","name:ja":"江界市","name:ko":"강계시","name:ko_hanja":"江界市","name:ru":"Канге","name:zh":"江界市","type":"boundary","wikidata":"Q489825"}}]},"id":"node/264064059"},
{"type":"Feature","geometry":{"type":"Point","coordinates":[125.2101297,39.6929225]},"properties":{"@id":"node/264065251","@relations":[{"role":"admin_centre","rel":5452811,"reltags":{"admin_level":"6","boundary":"administrative","name":"정주시","name:en":"Chongju","name:ja":"定州市","name:ko":"정주시","name:ko_hanja":"定州市","name:ru":"Чонджу","name:zh":"定州市","type":"boundary","wikidata":"Q213169"}}]},"id":"node/264065251"},
{"type":"Feature","geometry":{"type":"Point","coordinates":[125.252058,39.9792248]},"properties":{"@id":"node/264065858","@relations":[{"role":"admin_centre","rel":5452836,"reltags":{"admin_level":"6","boundary":"administrative","name":"구성시","name:en":"Kusong","name:ja":"亀城市","name:ko":"구성시","name:ko_hanja":"龜城市","name:ru":"Кусон","name:zh":"龟城市","name:zh-Hant":"龜城市","sorting_name:ru":"Кусон уезд","type":"boundary","wikidata":"Q431845"}}]},"id":"node/264065858"},
{"type":"Feature","geometry":{"type":"Point","coordinates":[124.4635255,39.9839222]},"properties":{"@id":"node/264068434","@relations":[{"role":"admin_centre","rel":5406211,"reltags":{"admin_level":"6","boundary":"administrative","name":"룡천군","name:en":"Ryongchon County","name:ja":"龍川郡","name:ko":"룡천군","name:ko_hanja":"龍川郡","name:ru":"уезд Йончхон","name:zh":"龙川郡","name:zh-Hant":"龍川郡","sorting_name:ru":"Йончхон уезд","type":"boundary","wikidata":"Q586891"}}]},"id":"node/264068434"},
{"type":"Feature","geometry":{"type":"Point","coordinates":[125.6611381,39.6173686]},"properties":{"@id":"node/343234697","@relations":[{"role":"admin_centre","rel":5453654,"reltags":{"admin_level":"6","boundary":"administrative","name":"안주시","name:en":"Anju","name:ja":"安州市","name:ko":"안주시","name:ko_hanja":"安州市","name:ru":"Анджу","name:zh":"安州市","type":"boundary","wikidata":"Q196236","wikipedia":"ko:안주시"}}]},"id":"node/343234697"},
{"type":"Feature","geometry":{"type":"Point","coordinates":[125.5823814,39.7228321]},"properties":{"@id":"node/343729036","@relations":[{"role":"admin_centre","rel":5453089,"reltags":{"admin_level":"6","boundary":"administrative","name":"박천군","name:en":"Pakchon County","name:ja":"博川郡","name:ko":"박천군","name:ko_hanja":"博川郡","name:ru":"уезд Пакчхон","name:zh":"博川郡","name:zh-Hant":"博川郡","sorting_name:ru":"Пакчхон уезд","type":"boundary","wikidata":"Q705768"}}]},"id":"node/343729036"},
{"type":"Feature","geometry":{"type":"Point","coordinates":[125.4589861,39.4905684]},"properties":{"@id":"node/343729504","@relations":[{"role":"admin_centre","rel":5453678,"reltags":{"admin_level":"6","boundary":"administrative","name":"청남구","name:en":"Chongnam","name:ja":"清南区","name:ko":"청남구","name:ko_hanja":"淸南區","name:ru":"Чхоннам","name:zh":"清南区","name:zh-Hant":"清南區","type":"boundary","wikidata":"Q27245983"}}]},"id":"node/343729504"},
{"type":"Feature","geometry":{"type":"Point","coordinates":[125.6242544,39.412191]},"properties":{"@id":"node/343731139","@relations":[{"role":"admin_centre","rel":5454106,"reltags":{"admin_level":"6","boundary":"administrative","name":"숙천군","name:en":"Sukchon County","name:ja":"粛川郡","name:ko":"숙천군","name:ko_hanja":"肅川郡","name:ru":"уезд Сукчхон","name:zh":"肃川郡","name:zh-Hant":"肅川郡","type":"boundary"}}]},"id":"node/343731139"},
{"type":"Feature","geometry":{"type":"Point","coordinates":[127.1295051,40.9683614]},"properties":{"@id":"node/413516573","@relations":[{"role":"admin_centre","rel":5475709,"reltags":{"admin_level":"6","boundary":"administrative","name":"랑림군","name:en":"Rangnim County","name:ja":"狼林郡","name:ko":"랑림군","name:ko_hanja":"狼林郡","name:ru":"уезд Нанним","name:zh":"狼林郡","type":"boundary","wikidata":"Q707721"}}]},"id":"node/413516573"},
{"type":"Feature","geometry":{"type":"Point","coordinates":[126.8853896,38.4897015]},"properties":{"@id":"node/414078628","@relations":[{"role":"admin_centre","rel":8323199,"reltags":{"admin_level":"6","boundary":"administrative","name":"이천군","name:en":"Ichon County","name:ja":"伊川郡","name:ko":"이천군","name:ko_hanja":"伊川郡","name:ru":"уезд Ичхон","name:zh":"伊川郡","sorting_name:ru":"Ичхон уезд","type":"boundary","wikidata":"Q199348"}}]},"id":"node/414078628"},
{"type":"Feature","geometry":{"type":"Point","coordinates":[128.9038646,40.4590505]},"properties":{"@id":"node/991650348","@relations":[{"role":"label","rel":8407289,"reltags":{"admin_level":"6","boundary":"administrative","name":"단천시","name:en":"Tanchon","name:ja":"端川市","name:ko":"단천시","name:ko-Hani":"端川市","name:ko-Latn":"Tanchŏn-si","name:zh":"端川市","type":"boundary"}}]},"id":"node/991650348"},
{"type":"Feature","geometry":{"type":"Point","coordinates":[124.8823683,38.1500606]},"properties":{"@id":"node/1210712322","@relations":[{"role":"admin_centre","rel":5469362,"reltags":{"admin_level":"6","boundary":"administrative","name":"룡연군","name:en":"Ryongyon County","name:ja":"龍淵郡","name:ko":"룡연군","name:ko_hanja":"龍淵郡","name:ru":"уезд Йонён","name:zh":"龍淵郡","type":"boundary","wikidata":"Q705070"}}]},"id":"node/1210712322"},
{"type":"Feature","geometry":{"type":"Point","coordinates":[126.1602107,37.9075884]},"properties":{"@id":"node/1248207921","@relations":[{"role":"admin_centre","rel":5469278,"reltags":{"admin_level":"6","boundary":"administrative","name":"연안군","name:en":"Yonan County","name:ja":"延安郡","name:ko":"연안군","name:ko_hanja":"延安郡","name:ru":"уезд Йонан","name:zh":"延安郡","type":"boundary","wikidata":"Q213173"}}]},"id":"node/1248207921"},
{"type":"Feature","geometry":{"type":"Point","coordinates":[126.0939931,38.8449136]},"properties":{"@id":"node/1891299111","@relations":[{"role":"admin_centre","rel":3860474,"reltags":{"admin_level":"6","boundary":"administrative","name":"상원군","name:en":"Sangwon County","name:ja":"祥原郡","name:ko":"상원군","name:ko_hanja":"祥原郡","name:ru":"уезд Санвон","name:zh":"祥原郡","type":"boundary"}}]},"id":"node/1891299111"},
{"type":"Feature","geometry":{"type":"Point","coordinates":[126.6473243,39.2198812]},"properties":{"@id":"node/1895965640","@relations":[{"role":"admin_centre","rel":5454334,"reltags":{"admin_level":"6","boundary":"administrative","name":"양덕군","name:en":"Yangdok County","name:ja":"陽徳郡","name:ko":"양덕군","name:ko_hanja":"陽德郡","name:ru":"уезд Яндок","name:uk":"Яндок повіт","name:zh":"阳德郡","name:zh-Hant":"陽德郡","type":"boundary","wikidata":"Q715724"}}]},"id":"node/1895965640"},
{"type":"Feature","geometry":{"type":"Point","coordinates":[126.3009168,39.5718561]},"properties":{"@id":"node/1946483224","@relations":[{"role":"admin_centre","rel":5454281,"reltags":{"admin_level":"6","boundary":"administrative","name":"북창군","name:en":"Pukchang County","name:ja":"北倉郡","name:ko":"북창군","name:ko_hanja":"北倉郡","name:ru":"уезд Пукчхан","name:zh":"北仓郡","name:zh-Hant":"北倉郡","type":"boundary"}}]},"id":"node/1946483224"},
{"type":"Feature","geometry":{"type":"Point","coordinates":[126.3132673,39.7657075]},"properties":{"@id":"node/1946549941","@relations":[{"role":"admin_centre","rel":5453666,"reltags":{"admin_level":"6","boundary":"administrative","name":"덕천시","name:en":"Tokchon","name:ja":"徳川市","name:ko":"덕천시","name:ko_hanja":"德川市","name:ru":"Токчхон","name:zh":"德川市","type":"boundary"}}]},"id":"node/1946549941"},
{"type":"Feature","geometry":{"type":"Point","coordinates":[126.2760271,40.171279]},"properties":{"@id":"node/1967131653","@relations":[{"role":"admin_centre","rel":5475706,"reltags":{"admin_level":"6","boundary":"administrative","name":"희천시","name:en":"Huichon","name:ja":"熙川市","name:ko":"희천시","name:ko_hanja":"熙川市","name:ru":"Хичхон","name:zh":"煕川市","type":"boundary","wikidata":"Q698719"}}]},"id":"node/1967131653"},
{"type":"Feature","geometry":{"type":"Point","coordinates":[125.8049562,39.8144698]},"properties":{"@id":"node/2245160539","@relations":[{"role":"admin_centre","rel":5453088,"reltags":{"admin_level":"6","boundary":"administrative","name":"녕변군","name:en":"Nyongbyon County","name:eo":"Jongbjono","name:ja":"寧辺郡","name:ko":"녕변군","name:ko_hanja":"寧邊郡","name:ru":"уезд Йонбён","name:zh":"寧邊郡","name:zh-Hans":"宁边郡","name:zh-Hant":"寧邊郡","sorting_name:ru":"Йонбён уезд","type":"boundary","wikidata":"Q4984076"}}]},"id":"node/2245160539"},
{"type":"Feature","geometry":{"type":"Point","coordinates":[125.4942845,39.9215369]},"properties":{"@id":"node/2246306887","@relations":[{"role":"admin_centre","rel":5453015,"reltags":{"admin_level":"6","boundary":"administrative","name":"태천군","name:en":"Taechon County","name:ja":"泰川郡","name:ko":"태천군","name:ko_hanja":"泰川郡","name:ru":"уезд Тхэчхон","name:zh":"泰川郡","sorting_name:ru":"Тхэчхон уезд","type":"boundary","wikidata":"Q706060"}}]},"id":"node/2246306887"},
{"type":"Feature","geometry":{"type":"Point","coordinates":[124.6018032,39.8957672]},"properties":{"@id":"node/2288051472","@relations":[{"role":"admin_centre","rel":5405593,"reltags":{"admin_level":"6","alt_name:ko_hanja":"鹽州郡","boundary":"administrative","name":"염주군","name:en":"Yomju County","name:ja":"塩州郡","name:ko":"염주군","name:ko_hanja":"塩州郡","name:ru":"уезд Йомджу","name:zh":"盐州郡","name:zh-Hant":"鹽州郡","sorting_name:ru":"Йомджу уезд","type":"boundary","wikidata":"Q705815"}}]},"id":"node/2288051472"},
{"type":"Feature","geometry":{"type":"Point","coordinates":[124.6167602,40.0144771]},"properties":{"@id":"node/2298504433","@relations":[{"role":"admin_centre","rel":5448288,"reltags":{"admin_level":"6","boundary":"administrative","name":"피현군","name:en":"Pihyon County","name:ja":"枇峴郡","name:ko":"피현군","name:ko_hanja":"枇峴郡","name:ru":"уезд Пхихён","name:zh":"枇岘郡","name:zh-Hant":"枇峴郡","sorting_name:ru":"Пхихён уезд","type":"boundary","wikidata":"Q706054"}}]},"id":"node/2298504433"},
{"type":"Feature","geometry":{"type":"Point","coordinates":[124.7104326,39.8565297]},"properties":{"@id":"node/2298535943","@relations":[{"role":"admin_centre","rel":5452592,"reltags":{"admin_level":"6","boundary":"administrative","name":"동림군","name:en":"Tongrim County","name:ja":"東林郡","name:ko":"동림군","name:ko_hanja":"東林郡","name:ru":"уезд Тонним","name:zh":"东林郡","name:zh-Hant":"東林郡","sorting_name:ru":"Тонним уезд","type":"boundary","wikidata":"Q705745"}}]},"id":"node/2298535943"},
{"type":"Feature","geometry":{"type":"Point","coordinates":[124.6786728,39.7708227]},"properties":{"@id":"node/2299275982","@relations":[{"role":"admin_centre","rel":5448332,"reltags":{"admin_level":"6","boundary":"administrative","name":"철산군","name:en":"Cholsan County","name:ja":"鉄山郡","name:ko":"철산군","name:ko_hanja":"鐵山郡","name:ru":"уезд Чхольсан","name:zh":"铁山郡","name:zh-Hant":"鐵山郡","sorting_name:ru":"Чхольсан уезд","type":"boundary","wikidata":"Q705468"}}]},"id":"node/2299275982"},
{"type":"Feature","geometry":{"type":"Point","coordinates":[125.0830144,39.6862361]},"properties":{"@id":"node/2444890697","@relations":[{"role":"admin_centre","rel":5452734,"reltags":{"admin_level":"6","boundary":"administrative","name":"곽산군","name:en":"Kwaksan County","name:ja":"郭山郡","name:ko":"곽산군","name:ko_hanja":"郭山郡","name:ru":"уезд Кваксан","name:zh":"郭山郡","sorting_name:ru":"Кваксан уезд","type":"boundary","wikidata":"Q705761"}}]},"id":"node/2444890697"},
{"type":"Feature","geometry":{"type":"Point","coordinates":[124.5311299,40.1977187]},"properties":{"@id":"node/2446445320","@relations":[{"role":"admin_centre","rel":5452597,"reltags":{"admin_level":"6","boundary":"administrative","name":"의주군","name:en":"Uiju County","name:ja":"義州郡","name:ko":"의주군","name:ko_hanja":"義州郡","name:ru":"уезд Ыйджу","name:zh":"义州郡","name:zh-Hant":"義州郡","sorting_name:ru":"Ыйджу уезд","type":"boundary","wikidata":"Q701248"}}]},"id":"node/2446445320"},
{"type":"Feature","geometry":{"type":"Point","coordinates":[127.291586,38.4143831]},"properties":{"@id":"node/2502068065","@relations":[{"role":"admin_centre","rel":8323973,"reltags":{"admin_level":"6","boundary":"administrative","name":"평강군","name:en":"Pyonggang County","name:ja":"平康郡","name:ko":"평강군","name:ko_hanja":"平康郡","name:ru":"уезд Пхёнган","name:uk":"Пгьонґан","name:zh":"平康郡","sorting_name:ru":"Пхёнган уезд","type":"boundary","wikidata":"Q487084"}}]},"id":"node/2502068065"},
{"type":"Feature","geometry":{"type":"Point","coordinates":[127.3584812,38.6426271]},"properties":{"@id":"node/2506817155","@relations":[{"role":"admin_centre","rel":8323804,"reltags":{"admin_level":"6","boundary":"administrative","name":"세포군","name:en":"Sepo County","name:fa":"سپو","name:ja":"洗浦郡","name:ko":"세포군","name:ko_hanja":"洗浦郡","name:no":"Sepo","name:pl":"Sep'o","name:ru":"уезд Сепхо","name:vi":"Sepo","name:zh":"洗浦郡","sorting_name:ru":"Сепхо уезд","type":"boundary","wikidata":"Q486747","wikipedia":"ko:세포군"}}]},"id":"node/2506817155"},
{"type":"Feature","geometry":{"type":"Point","coordinates":[127.5945204,38.4205701]},"properties":{"@id":"node/2521015414","@relations":[{"role":"admin_centre","rel":8323972,"reltags":{"admin_level":"6","boundary":"administrative","name":"김화군","name:en":"Kimhwa County","name:ja":"金化郡","name:ko":"김화군","name:ko_hanja":"金化郡","name:ru":"уезд Кимхва","name:zh":"金化郡","sorting_name:ru":"Кимхва уезд","type":"boundary","wikidata":"Q485618"}}]},"id":"node/2521015414"},
{"type":"Feature","geometry":{"type":"Point","coordinates":[127.8909504,38.9540273]},"properties":{"@id":"node/2523747656","@relations":[{"role":"admin_centre","rel":8313358,"reltags":{"admin_level":"6","boundary":"administrative","name":"통천군","name:en":"Tongchon County","name:ja":"通川郡","name:ko":"통천군","name:ko_hanja":"通川郡","name:ru":"уезд Тхончхон","name:zh":"通川郡","sorting_name:ru":"Тхончхон уезд","type":"boundary","wikidata":"Q487587"}}]},"id":"node/2523747656"},
{"type":"Feature","geometry":{"type":"Point","coordinates":[127.42152,38.8565363]},"properties":{"@id":"node/2572171839","@relations":[{"role":"admin_centre","rel":5974099,"reltags":{"admin_level":"6","boundary":"administrative","name":"고산군","name:en":"Kosan County","name:ja":"高山郡","name:ko":"고산군","name:ko_hanja":"高山郡","name:ru":"уезд Косан","name:zh":"高山郡","sorting_name:ru":"Косан уезд","type":"boundary","wikidata":"Q486773"}}]},"id":"node/2572171839"},
{"type":"Feature","geometry":{"type":"Point","coordinates":[125.583669,38.9374712]},"properties":{"@id":"node/2927431019","@relations":[{"role":"admin_centre","rel":5454211,"reltags":{"admin_level":"6","boundary":"administrative","name":"천리마군","name:en":"Chollima County","name:ja":"千里馬郡","name:ko":"천리마군","name:ko_hanja":"千里馬郡","name:ru":"уезд Чхоллима","name:zh":"千里馬郡","type":"boundary","wikidata":"Q224908"}}]},"id":"node/2927431019"},
{"type":"Feature","geometry":{"type":"Point","coordinates":[126.5309999,38.506411]},"properties":{"@id":"node/2933800787","@relations":[{"role":"admin_centre","rel":5456494,"reltags":{"admin_level":"6","boundary":"administrative","name":"신계군","name:en":"Singye County","name:ja":"新渓郡","name:ko":"신계군","name:ko_hanja":"新溪郡","name:ru":"уезд Синге","name:zh":"新溪郡","type":"boundary"}}]},"id":"node/2933800787"},
{"type":"Feature","geometry":{"type":"Point","coordinates":[125.3302885,40.587952]},"properties":{"@id":"node/2937719138","@relations":[{"role":"admin_centre","rel":5452898,"reltags":{"admin_level":"6","boundary":"administrative","name":"벽동군","name:en":"Pyokdong County","name:ja":"碧潼郡","name:ko":"벽동군","name:ko_hanja":"碧潼郡","name:ru":"уезд Пёктон","name:zh":"碧潼郡","name:zh-Hant":"碧潼郡","sorting_name:ru":"Пёктон уезд","type":"boundary","wikidata":"Q706030"}}]},"id":"node/2937719138"},
{"type":"Feature","geometry":{"type":"Point","coordinates":[125.4300093,38.5667565]},"properties":{"@id":"node/2939056982","@relations":[{"role":"admin_centre","rel":5469428,"reltags":{"admin_level":"6","boundary":"administrative","name":"은천군","name:en":"Unchon County","name:ja":"銀泉郡","name:ko":"은천군","name:ko_hanja":"銀泉郡","name:ru":"уезд Ынчхон","name:zh":"银泉郡","name:zh-Hant":"銀泉郡","type":"boundary"}}]},"id":"node/2939056982"},
{"type":"Feature","geometry":{"type":"Point","coordinates":[125.492778,38.5080258]},"properties":{"@id":"node/2939062118","@relations":[{"role":"admin_centre","rel":5469425,"reltags":{"admin_level":"6","boundary":"administrative","name":"안악군","name:en":"Anak County","name:ja":"安岳郡","name:ko":"안악군","name:ko_hanja":"安岳郡","name:ru":"уезд Анак","name:zh":"安岳郡","type":"boundary"}}]},"id":"node/2939062118"},
{"type":"Feature","geometry":{"type":"Point","coordinates":[125.095926,38.2528835]},"properties":{"@id":"node/2939066636","@relations":[{"role":"admin_centre","rel":5469505,"reltags":{"admin_level":"6","boundary":"administrative","name":"장연군","name:en":"Changyon County","name:ja":"長淵郡","name:ko":"장연군","name:ko_hanja":"長淵郡","name:ru":"уезд Чанён","name:zh":"長淵郡","type":"boundary","wikidata":"Q27245880"}}]},"id":"node/2939066636"},
{"type":"Feature","geometry":{"type":"Point","coordinates":[125.9400632,37.9751605]},"properties":{"@id":"node/2939067622","@relations":[{"role":"admin_centre","rel":5469279,"reltags":{"admin_level":"6","boundary":"administrative","name":"청단군","name:en":"Chongdan County","name:ja":"青丹郡","name:ko":"청단군","name:ko_hanja":"靑丹郡","name:ru":"уезд Чхондан","name:zh":"青丹郡","type":"boundary","wikidata":"Q27245972"}}]},"id":"node/2939067622"},
{"type":"Feature","geometry":{"type":"Point","coordinates":[125.5114603,37.9075595]},"properties":{"@id":"node/2939076417","@relations":[{"role":"admin_centre","rel":5469308,"reltags":{"admin_level":"6","boundary":"administrative","name":"강령군","name:en":"Kangnyong County","name:ja":"康翎郡","name:ko":"강령군","name:ko_hanja":"康翎郡","name:ru":"уезд Каннён","name:zh":"康翎郡","type":"boundary","wikidata":"Q27245167"}}]},"id":"node/2939076417"},
{"type":"Feature","geometry":{"type":"Point","coordinates":[126.3025262,37.9920351]},"properties":{"@id":"node/2939088928","@relations":[{"role":"admin_centre","rel":5469223,"reltags":{"admin_level":"6","boundary":"administrative","name":"백천군","name:en":"Paekchon County","name:ja":"白川郡","name:ko":"백천군","name:ko_hanja":"白川郡","name:ru":"уезд Пэкчхон","name:zh":"白川郡","type":"boundary","wikidata":"Q705733"}}]},"id":"node/2939088928"},
{"type":"Feature","geometry":{"type":"Point","coordinates":[125.8014874,38.8626904]},"properties":{"@id":"node/2939859259","@relations":[{"role":"admin_centre","rel":3859544,"reltags":{"admin_level":"6","boundary":"administrative","name":"중화군","name:en":"Chunghwa County","name:ja":"中和郡","name:ko":"중화군","name:ko_hanja":"中和郡","name:ru":"уезд Чунхва","name:zh":"中和郡","type":"boundary","wikidata":"Q704949"}}]},"id":"node/2939859259"},
{"type":"Feature","geometry":{"type":"Point","coordinates":[126.0995107,39.1416596]},"properties":{"@id":"node/2940501100","@relations":[{"role":"admin_centre","rel":3860523,"reltags":{"admin_level":"6","boundary":"administrative","name":"강동군","name:en":"Kangdong County","name:ja":"江東郡","name:ko":"강동군","name:ko_hanja":"江東郡","name:ru":"уезд Кандон","name:zh":"江东郡","name:zh-Hant":"江東郡","type":"boundary","wikidata":"Q224927"}}]},"id":"node/2940501100"},
{"type":"Feature","geometry":{"type":"Point","coordinates":[127.0004969,38.7525441]},"properties":{"@id":"node/3049340595","@relations":[{"role":"admin_centre","rel":8322192,"reltags":{"admin_level":"6","boundary":"administrative","name":"판교군","name:en":"Pangyo County","name:fa":"پانگیو","name:ja":"板橋郡","name:ko":"판교군","name:ko_hanja":"板橋郡","name:no":"Pankyo","name:pl":"P'an'gyo","name:ru":"уезд Пхангё","name:vi":"Pankyo","name:zh":"板橋郡","sorting_name:ru":"Пхангё уезд","type":"boundary","wikidata":"Q486770","wikipedia":"ko:판교군"}}]},"id":"node/3049340595"},
{"type":"Feature","geometry":{"type":"Point","coordinates":[125.6036094,39.3054149]},"properties":{"@id":"node/3057367140","@relations":[{"role":"admin_centre","rel":5454113,"reltags":{"admin_level":"6","boundary":"administrative","name":"평원군","name:en":"Pyongwon County","name:ja":"平原郡","name:ko":"평원군","name:ko_hanja":"平原郡","name:ru":"уезд Пхёнвон","name:zh":"平原郡","type":"boundary"}}]},"id":"node/3057367140"},
{"type":"Feature","geometry":{"type":"Point","coordinates":[125.0470938,40.3873206]},"properties":{"@id":"node/3517229134","@relations":[{"role":"admin_centre","rel":5452749,"reltags":{"admin_level":"6","boundary":"administrative","name":"삭주군","name:en":"Sakju County","name:ja":"朔州郡","name:ko":"삭주군","name:ko_hanja":"朔州郡","name:ru":"уезд Сакчу","name:zh":"朔州郡","sorting_name:ru":"Сакчу уезд","type":"boundary","wikidata":"Q225068"}}]},"id":"node/3517229134"},
{"type":"Feature","geometry":{"type":"Point","coordinates":[125.5952731,39.5000042]},"properties":{"@id":"node/3517391817","@relations":[{"role":"admin_centre","rel":5454101,"reltags":{"admin_level":"6","boundary":"administrative","name":"문덕군","name:en":"Mundok County","name:ja":"文徳郡","name:ko":"문덕군","name:ko_hanja":"文德郡","name:ru":"уезд Мундок","name:zh":"文德郡","type":"boundary","wikidata":"Q27244716"}}]},"id":"node/3517391817"},
{"type":"Feature","geometry":{"type":"Point","coordinates":[124.9181405,39.7977909]},"properties":{"@id":"node/3706788332","@relations":[{"role":"admin_centre","rel":5452696,"reltags":{"admin_level":"6","boundary":"administrative","name":"선천군","name:en":"Sonchon County","name:ja":"宣川郡","name:ko":"선천군","name:ko_hanja":"宣川郡","name:ru":"уезд Сончхон","name:zh":"宣川郡","sorting_name:ru":"Сончхон уезд","type":"boundary","wikidata":"Q705831"}}]},"id":"node/3706788332"},
{"type":"Feature","geometry":{"type":"Point","coordinates":[125.0204122,40.0537707]},"properties":{"@id":"node/3706796336","@relations":[{"role":"admin_centre","rel":5452717,"reltags":{"admin_level":"6","boundary":"administrative","name":"천마군","name:en":"Chonma County","name:ja":"天摩郡","name:ko":"천마군","name:ko_hanja":"天摩郡","name:ru":"уезд Чхонма","name:zh":"天摩郡","sorting_name:ru":"Чхонма уезд","type":"boundary","wikidata":"Q705728"}}]},"id":"node/3706796336"},
{"type":"Feature","geometry":{"type":"Point","coordinates":[125.2038777,40.2069866]},"properties":{"@id":"node/3706893251","@relations":[{"role":"admin_centre","rel":5452823,"reltags":{"admin_level":"6","boundary":"administrative","name":"대관군","name:en":"Taegwan County","name:ja":"大館郡","name:ko":"대관군","name:ko_hanja":"大館郡","name:ru":"уезд Тэгван","name:zh":"大馆郡","name:zh-Hant":"大館郡","sorting_name:ru":"Тэгван уезд","type":"boundary","wikidata":"Q705749"}}]},"id":"node/3706893251"},
{"type":"Feature","geometry":{"type":"Point","coordinates":[125.2174721,40.4507273]},"properties":{"@id":"node/3706915185","@relations":[{"role":"admin_centre","rel":5452899,"reltags":{"admin_level":"6","boundary":"administrative","name":"창성군","name:en":"Changsong County","name:ja":"昌城郡","name:ko":"창성군","name:ko_hanja":"昌城郡","name:ru":"уезд Чхансон","name:zh":"昌城郡","sorting_name:ru":"Чхансон уезд","type":"boundary","wikidata":"Q706048"}}]},"id":"node/3706915185"},
{"type":"Feature","geometry":{"type":"Point","coordinates":[125.5191904,39.6641919]},"properties":{"@id":"node/3706928752","@relations":[{"role":"admin_centre","rel":5452929,"reltags":{"admin_level":"6","boundary":"administrative","name":"운전군","name:en":"Unjon County","name:ja":"雲田郡","name:ko":"운전군","name:ko_hanja":"雲田郡","name:ru":"уезд Унджон","name:zh":"云田郡","name:zh-Hant":"雲田郡","sorting_name:ru":"Унджон уезд","type":"boundary","wikidata":"Q705484"}}]},"id":"node/3706928752"},
{"type":"Feature","geometry":{"type":"Point","coordinates":[125.5647239,40.293051]},"properties":{"@id":"node/3706944126","@relations":[{"role":"admin_centre","rel":5453023,"reltags":{"admin_level":"6","boundary":"administrative","name":"동창군","name:en":"Tongchang County","name:ja":"東倉郡","name:ko":"동창군","name:ko_hanja":"東倉郡","name:ru":"уезд Тончхан","name:zh":"东仓郡","name:zh-Hant":"東倉郡","sorting_name:ru":"Тончхан уезд","type":"boundary","wikidata":"Q705717"}}]},"id":"node/3706944126"},
{"type":"Feature","geometry":{"type":"Point","coordinates":[125.9007447,40.1117755]},"properties":{"@id":"node/3706983721","@relations":[{"role":"admin_centre","rel":5453133,"reltags":{"admin_level":"6","boundary":"administrative","name":"운산군","name:en":"Unsan County","name:ja":"雲山郡","name:ko":"운산군","name:ko_hanja":"雲山郡","name:ru":"уезд Унсан","name:zh":"云山郡","name:zh-Hant":"雲山郡","sorting_name:ru":"Унсан уезд","type":"boundary","wikidata":"Q708507"}}]},"id":"node/3706983721"},
{"type":"Feature","geometry":{"type":"Point","coordinates":[126.0281041,39.8690975]},"properties":{"@id":"node/3706999613","@relations":[{"role":"admin_centre","rel":5453151,"reltags":{"admin_level":"6","boundary":"administrative","name":"구장군","name:en":"Kujang County","name:ja":"球場郡","name:ko":"구장군","name:ko_hanja":"球場郡","name:ru":"уезд Куджан","name:zh":"球场郡","name:zh-Hant":"球場郡","sorting_name:ru":"Куджан уезд","type":"boundary","wikidata":"Q705795"}}]},"id":"node/3706999613"},
{"type":"Feature","geometry":{"type":"Point","coordinates":[126.1761598,40.0399652]},"properties":{"@id":"node/3706999614","@relations":[{"role":"admin_centre","rel":5453152,"reltags":{"admin_level":"6","boundary":"administrative","name":"향산군","name:en":"Hyangsan County","name:ja":"香山郡","name:ko":"향산군","name:ko_hanja":"香山郡","name:ru":"уезд Хянсан","name:zh":"香山郡","sorting_name:ru":"Хянсан уезд","type":"boundary","wikidata":"Q705492"}}]},"id":"node/3706999614"},
{"type":"Feature","geometry":{"type":"Point","coordinates":[125.7741176,39.507017]},"properties":{"@id":"node/3707614039","@relations":[{"role":"admin_centre","rel":5454093,"reltags":{"admin_level":"6","boundary":"administrative","name":"운곡지구","name:en":"Ungok","name:ja":"雲谷地区","name:ko":"운곡지구","name:ko_hanja":"雲谷地區","name:ru":"Унгок","name:zh":"雲谷地區","type":"boundary"}}]},"id":"node/3707614039"},
{"type":"Feature","geometry":{"type":"Point","coordinates":[125.3716019,39.1043869]},"properties":{"@id":"node/3707655698","@relations":[{"role":"admin_centre","rel":5454141,"reltags":{"admin_level":"6","boundary":"administrative","name":"증산군","name:en":"Chungsan County","name:ja":"甑山郡","name:ko":"증산군","name:ko_hanja":"甑山郡","name:ru":"уезд Чынсан","name:zh":"甑山郡","type":"boundary","wikidata":"Q27245555"}}]},"id":"node/3707655698"},
{"type":"Feature","geometry":{"type":"Point","coordinates":[125.4220343,38.8543975]},"properties":{"@id":"node/3707703929","@relations":[{"role":"admin_centre","rel":5454212,"reltags":{"admin_level":"6","boundary":"administrative","name":"룡강군","name:en":"Ryonggang County","name:ja":"龍岡郡","name:ko":"룡강군","name:ko_hanja":"龍岡郡","name:ru":"уезд Йонган","name:zh":"龙冈郡","name:zh-Hant":"龍岡郡","type":"boundary","wikidata":"Q712209"}}]},"id":"node/3707703929"},
{"type":"Feature","geometry":{"type":"Point","coordinates":[125.2264601,38.8788561]},"properties":{"@id":"node/3707703930","@relations":[{"role":"admin_centre","rel":5454213,"reltags":{"admin_level":"6","boundary":"administrative","name":"온천군","name:en":"Onchon County","name:ja":"温泉郡","name:ko":"온천군","name:ko_hanja":"溫泉郡","name:ru":"уезд Ончхон","name:zh":"温泉郡","name:zh-Hant":"溫泉郡","type":"boundary"}}]},"id":"node/3707703930"},
{"type":"Feature","geometry":{"type":"Point","coordinates":[126.0162778,39.3955685]},"properties":{"@id":"node/3707771307","@relations":[{"role":"admin_centre","rel":5454295,"reltags":{"admin_level":"6","boundary":"administrative","name":"은산군","name:en":"Unsan County","name:ja":"殷山郡","name:ko":"은산군","name:ko_hanja":"殷山郡","name:ru":"уезд Ынсан","name:zh":"殷山郡","type":"boundary"}}]},"id":"node/3707771307"},
{"type":"Feature","geometry":{"type":"Point","coordinates":[126.2179104,39.2505947]},"properties":{"@id":"node/3707778531","@relations":[{"role":"admin_centre","rel":5454307,"reltags":{"admin_level":"6","boundary":"administrative","name":"성천군","name:en":"Songchon County","name:ja":"成川郡","name:ko":"성천군","name:ko_hanja":"成川郡","name:ru":"уезд Сончхон","name:zh":"成川郡","type":"boundary"}}]},"id":"node/3707778531"},
{"type":"Feature","geometry":{"type":"Point","coordinates":[126.4567099,39.1017138]},"properties":{"@id":"node/3707815832","@relations":[{"role":"admin_centre","rel":5454326,"reltags":{"admin_level":"6","boundary":"administrative","name":"회창군","name:en":"Hoechang County","name:ja":"檜倉郡","name:ko":"회창군","name:ko_hanja":"檜倉郡","name:ru":"уезд Хвечхан","name:zh":"檜倉郡","type":"boundary","wikidata":"Q27245608"}}]},"id":"node/3707815832"},
{"type":"Feature","geometry":{"type":"Point","coordinates":[126.4540848,39.2793403]},"properties":{"@id":"node/3707823721","@relations":[{"role":"admin_centre","rel":5454342,"reltags":{"admin_level":"6","boundary":"administrative","name":"신양군","name:en":"Sinyang County","name:ja":"新陽郡","name:ko":"신양군","name:ko_hanja":"新陽郡","name:ru":"уезд Синъян","name:zh":"新阳郡","name:zh-Hant":"新陽郡","type":"boundary"}}]},"id":"node/3707823721"},
{"type":"Feature","geometry":{"type":"Point","coordinates":[126.5063211,39.6560756]},"properties":{"@id":"node/3707843778","@relations":[{"role":"admin_centre","rel":5454375,"reltags":{"admin_level":"6","boundary":"administrative","name":"맹산군","name:en":"Maengsan County","name:ja":"孟山郡","name:ko":"맹산군","name:ko_hanja":"孟山郡","name:ru":"уезд Мэнсан","name:zh":"孟山郡","type":"boundary","wikidata":"Q27245075"}}]},"id":"node/3707843778"},
{"type":"Feature","geometry":{"type":"Point","coordinates":[126.5432764,39.8231713]},"properties":{"@id":"node/3707860761","@relations":[{"role":"admin_centre","rel":5454378,"reltags":{"admin_level":"6","boundary":"administrative","name":"녕원군","name:en":"Nyongwon County","name:ja":"寧遠郡","name:ko":"녕원군","name:ko_hanja":"寧遠郡","name:ru":"уезд Нёнвон","name:zh":"宁远郡","name:zh-Hant":"寧遠郡","type":"boundary"}}]},"id":"node/3707860761"},
{"type":"Feature","geometry":{"type":"Point","coordinates":[126.9362672,40.0917173]},"properties":{"@id":"node/3707865088","@relations":[{"role":"admin_centre","rel":5454385,"reltags":{"admin_level":"6","boundary":"administrative","name":"대흥군","name:en":"Taehŭng County","name:ja":"大興郡","name:ko":"대흥군","name:ko_hanja":"大興郡","name:ru":"уезд Тэхын","name:zh":"大興郡","name:zh-Hant":"大興郡","type":"boundary"}}]},"id":"node/3707865088"},
{"type":"Feature","geometry":{"type":"Point","coordinates":[125.7614514,38.6936286]},"properties":{"@id":"node/3708403250","@relations":[{"role":"admin_centre","rel":5455231,"reltags":{"admin_level":"6","boundary":"administrative","name":"황주군","name:en":"Hwangju County","name:ja":"黄州郡","name:ko":"황주군","name:ko_hanja":"黃州郡","name:ru":"уезд Хванджу","name:zh":"黄州郡","name:zh-Hant":"黃州郡","type":"boundary","wikidata":"Q27245648"}}]},"id":"node/3708403250"},
{"type":"Feature","geometry":{"type":"Point","coordinates":[126.7426162,38.8987272]},"properties":{"@id":"node/3708485726","@relations":[{"role":"admin_centre","rel":5455454,"reltags":{"admin_level":"6","boundary":"administrative","name":"신평군","name:ar":"محافظة شنبيونغ","name:en":"Sinpyong County","name:ja":"新坪郡","name:ko":"신평군","name:ko_hanja":"新坪郡","name:no":"Sinpyong","name:pl":"Sinp'yŏng","name:ru":"уезд Синпхён","name:vi":"Sinpyong","name:zh":"新坪郡","type":"boundary","wikidata":"Q711009","wikipedia":"ko:신평군"}}]},"id":"node/3708485726"},
{"type":"Feature","geometry":{"type":"Point","coordinates":[126.1266102,38.3421153]},"properties":{"@id":"node/3708960748","@relations":[{"role":"admin_centre","rel":5456104,"reltags":{"admin_level":"6","boundary":"administrative","name":"린산군","name:en":"Rinsan County","name:ja":"麟山郡","name:ko":"린산군","name:ko_hanja":"麟山郡","name:ru":"уезд Инсан","name:zh":"麟山郡","type":"boundary","wikidata":"Q27245700"}}]},"id":"node/3708960748"},
{"type":"Feature","geometry":{"type":"Point","coordinates":[125.8454403,38.4868106]},"properties":{"@id":"node/3709010249","@relations":[{"role":"admin_centre","rel":5456194,"reltags":{"admin_level":"6","boundary":"administrative","name":"봉산군","name:en":"Pongsan County","name:ja":"鳳山郡","name:ko":"봉산군","name:ko_hanja":"鳳山郡","name:ru":"уезд Понсан","name:zh":"凤山郡","name:zh-Hant":"鳳山郡","type":"boundary"}}]},"id":"node/3709010249"},
{"type":"Feature","geometry":{"type":"Point","coordinates":[126.6925662,38.3113761]},"properties":{"@id":"node/3709163475","@relations":[{"role":"admin_centre","rel":5456509,"reltags":{"admin_level":"6","boundary":"administrative","name":"토산군","name:en":"Tosan County","name:ja":"兎山郡","name:ko":"토산군","name:ko_hanja":"兎山郡","name:ru":"уезд Тхосан","name:zh":"兔山郡","name:zh-Hant":"兔山郡","type":"boundary"}}]},"id":"node/3709163475"},
{"type":"Feature","geometry":{"type":"Point","coordinates":[126.2073523,38.1276957]},"properties":{"@id":"node/3718623271","@relations":[{"role":"admin_centre","rel":5469240,"reltags":{"admin_level":"6","boundary":"administrative","name":"봉천군","name:en":"Pongchon County","name:ja":"峰泉郡","name:ko":"봉천군","name:ko_hanja":"峰泉郡","name:ru":"уезд Пончхон","name:zh":"峰泉郡","type":"boundary"}}]},"id":"node/3718623271"},
{"type":"Feature","geometry":{"type":"Point","coordinates":[125.5563329,38.046962]},"properties":{"@id":"node/3718765656","@relations":[{"role":"admin_centre","rel":5469410,"reltags":{"admin_level":"6","boundary":"administrative","name":"벽성군","name:en":"Pyoksong County","name:ja":"碧城郡","name:ko":"벽성군","name:ko_hanja":"碧城郡","name:ru":"уезд Пёксон","name:zh":"碧城郡","type":"boundary"}}]},"id":"node/3718765656"},
{"type":"Feature","geometry":{"type":"Point","coordinates":[125.1895747,38.5122035]},"properties":{"@id":"node/3718811923","@relations":[{"role":"admin_centre","rel":5469475,"reltags":{"admin_level":"6","boundary":"administrative","name":"은률군","name:en":"Unnyun County","name:ja":"殷栗郡","name:ko":"은률군","name:ko_hanja":"殷栗郡","name:ru":"уезд Ыннюн","name:zh":"殷栗郡","type":"boundary"}}]},"id":"node/3718811923"},
{"type":"Feature","geometry":{"type":"Point","coordinates":[125.1369428,38.3613097]},"properties":{"@id":"node/3718818079","@relations":[{"role":"admin_centre","rel":5469483,"reltags":{"admin_level":"6","boundary":"administrative","name":"송화군","name:en":"Songhwa County","name:ja":"松禾郡","name:ko":"송화군","name:ko_hanja":"松禾郡","name:ru":"уезд Сонхва","name:zh":"松禾郡","type":"boundary"}}]},"id":"node/3718818079"},
{"type":"Feature","geometry":{"type":"Point","coordinates":[124.2310733,39.8045453]},"properties":{"@id":"node/3719392463","@relations":[{"role":"admin_centre","rel":5470473,"reltags":{"admin_level":"6","boundary":"administrative","name":"신도군","name:en":"Sindo County","name:ja":"薪島郡","name:ko":"신도군","name:ko_hanja":"薪島郡","name:ru":"уезд Синдо","name:zh":"薪岛郡","name:zh-Hant":"薪島郡","sorting_name:ru":"Синдо уезд","type":"boundary","wikidata":"Q702644"}}]},"id":"node/3719392463"},
{"type":"Feature","geometry":{"type":"Point","coordinates":[125.6696147,40.6794746]},"properties":{"@id":"node/3722851085","@relations":[{"role":"admin_centre","rel":5475043,"reltags":{"admin_level":"6","boundary":"administrative","name":"우시군","name:en":"Usi County","name:ja":"雩時郡","name:ko":"우시군","name:ko_hanja":"雩時郡","name:ru":"уезд Уси","name:zh":"雩时郡","name:zh-Hant":"雩時郡","type":"boundary","wikidata":"Q702818"}}]},"id":"node/3722851085"},
{"type":"Feature","geometry":{"type":"Point","coordinates":[125.805304,40.8312208]},"properties":{"@id":"node/3722858349","@relations":[{"role":"admin_centre","rel":5475058,"reltags":{"admin_level":"6","boundary":"administrative","name":"초산군","name:en":"Chosan County","name:ja":"楚山郡","name:ko":"초산군","name:ko_hanja":"楚山郡","name:ru":"уезд Чхосан","name:zh":"楚山郡","type":"boundary","wikidata":"Q707684"}}]},"id":"node/3722858349"},
{"type":"Feature","geometry":{"type":"Point","coordinates":[125.9475912,40.6036259]},"properties":{"@id":"node/3722873021","@relations":[{"role":"admin_centre","rel":5475091,"reltags":{"admin_level":"6","boundary":"administrative","name":"고풍군","name:en":"Kopung County","name:ja":"古豊郡","name:ko":"고풍군","name:ko_hanja":"古豐郡","name:ru":"уезд Копхун","name:zh":"古豐郡","name:zh-Hant":"古豐郡","type":"boundary","wikidata":"Q705301"}}]},"id":"node/3722873021"},
{"type":"Feature","geometry":{"type":"Point","coordinates":[126.3002496,40.3711971]},"properties":{"@id":"node/3722896848","@relations":[{"role":"admin_centre","rel":5475105,"reltags":{"admin_level":"6","boundary":"administrative","name":"송원군","name:en":"Songwon County","name:ja":"松源郡","name:ko":"송원군","name:ko_hanja":"松源郡","name:ru":"уезд Сонвон","name:zh":"松源郡","type":"boundary","wikidata":"Q705457"}}]},"id":"node/3722896848"},
{"type":"Feature","geometry":{"type":"Point","coordinates":[125.969014,40.898435]},"properties":{"@id":"node/3723463563","@relations":[{"role":"admin_centre","rel":5475707,"reltags":{"admin_level":"6","boundary":"administrative","name":"위원군","name:en":"Wiwon County","name:ja":"渭原郡","name:ko":"위원군","name:ko_hanja":"渭原郡","name:ru":"уезд Вивон","name:zh":"渭原郡","type":"boundary","wikidata":"Q705313"}}]},"id":"node/3723463563"},
{"type":"Feature","geometry":{"type":"Point","coordinates":[126.6499987,40.5427851]},"properties":{"@id":"node/3723463564","@relations":[{"role":"admin_centre","rel":5475708,"reltags":{"admin_level":"6","boundary":"administrative","name":"룡림군","name:en":"Ryongnim County","name:ja":"龍林郡","name:ko":"룡림군","name:ko_hanja":"龍林郡","name:ru":"уезд Йонним","name:zh":"龍林郡","type":"boundary","wikidata":"Q705755"}}]},"id":"node/3723463564"},
{"type":"Feature","geometry":{"type":"Point","coordinates":[126.3700109,41.0775752]},"properties":{"@id":"node/3723463565","@relations":[{"role":"admin_centre","rel":5475710,"reltags":{"admin_level":"6","boundary":"administrative","name":"시중군","name:en":"Sijung County","name:ja":"時中郡","name:ko":"시중군","name:ko_hanja":"時中郡","name:ru":"уезд Сиджун","name:zh":"時中郡","type":"boundary","wikidata":"Q705461"}}]},"id":"node/3723463565"},
{"type":"Feature","geometry":{"type":"Point","coordinates":[126.5632166,40.7945836]},"properties":{"@id":"node/3723463566","@relations":[{"role":"admin_centre","rel":5475711,"reltags":{"admin_level":"6","boundary":"administrative","name":"성간군","name:en":"Songgan County","name:ja":"城干郡","name:ko":"성간군","name:ko_hanja":"城干郡","name:ru":"уезд Сонган","name:zh":"城干郡","type":"boundary","wikidata":"Q705326"}}]},"id":"node/3723463566"},
{"type":"Feature","geometry":{"type":"Point","coordinates":[126.3061282,40.3083123]},"properties":{"@id":"node/3723463567","@relations":[{"role":"admin_centre","rel":5475712,"reltags":{"admin_level":"6","boundary":"administrative","name":"동신군","name:en":"Tongsin County","name:ja":"東新郡","name:ko":"동신군","name:ko_hanja":"東新郡","name:ru":"уезд Тонсин","name:zh":"東新郡","type":"boundary","wikidata":"Q705471"}}]},"id":"node/3723463567"},
{"type":"Feature","geometry":{"type":"Point","coordinates":[126.896734,41.258677]},"properties":{"@id":"node/3723463568","@relations":[{"role":"admin_centre","rel":5475713,"reltags":{"admin_level":"6","boundary":"administrative","name":"화평군","name:en":"Hwapyong County","name:ja":"和坪郡","name:ko":"화평군","name:ko_hanja":"和坪郡","name:ru":"уезд Хвапхён","name:zh":"和坪郡","type":"boundary","wikidata":"Q705466"}}]},"id":"node/3723463568"},
{"type":"Feature","geometry":{"type":"Point","coordinates":[126.668993,41.0588051]},"properties":{"@id":"node/3723463569","@relations":[{"role":"admin_centre","rel":5475714,"reltags":{"admin_level":"6","boundary":"administrative","name":"장강군","name:en":"Changgang County","name:ja":"長江郡","name:ko":"장강군","name:ko_hanja":"長江郡","name:ru":"уезд Чанган","name:zh":"長江郡","type":"boundary","wikidata":"Q707395"}}]},"id":"node/3723463569"},
{"type":"Feature","geometry":{"type":"Point","coordinates":[126.6419444,41.4611528]},"properties":{"@id":"node/3723463570","@relations":[{"role":"admin_centre","rel":5475715,"reltags":{"admin_level":"6","boundary":"administrative","name":"자성군","name:en":"Chasong County","name:ja":"慈城郡","name:ko":"자성군","name:ko_hanja":"慈城郡","name:ru":"уезд Часон","name:zh":"慈城郡","type":"boundary","wikidata":"Q698477"}}]},"id":"node/3723463570"},
{"type":"Feature","geometry":{"type":"Point","coordinates":[126.4617397,40.6155864]},"properties":{"@id":"node/3723463571","@relations":[{"role":"admin_centre","rel":5475716,"reltags":{"admin_level":"6","boundary":"administrative","name":"전천군","name:en":"Chonchon County","name:ja":"前川郡","name:ko":"전천군","name:ko_hanja":"前川郡","name:ru":"уезд Чончхон","name:zh":"前川郡","type":"boundary","wikidata":"Q707402"}}]},"id":"node/3723463571"},
{"type":"Feature","geometry":{"type":"Point","coordinates":[126.872838,41.77738]},"properties":{"@id":"node/3723463572","@relations":[{"role":"admin_centre","rel":5475717,"reltags":{"admin_level":"6","boundary":"administrative","name":"중강군","name:en":"Chunggang County","name:ja":"中江郡","name:ko":"중강군","name:ko_hanja":"中江郡","name:ru":"уезд Чунган","name:zh":"中江郡","type":"boundary","wikidata":"Q430493"}}]},"id":"node/3723463572"},
{"type":"Feature","geometry":{"type":"Point","coordinates":[127.985977,38.6227128]},"properties":{"@id":"node/3730773539","@relations":[{"role":"admin_centre","rel":5486618,"reltags":{"admin_level":"6","boundary":"administrative","name":"금강군","name:en":"Kumgang County","name:ja":"金剛郡","name:ko":"금강군","name:ko_hanja":"金剛郡","name:ru":"уезд Кымган","name:zh":"金剛郡","sorting_name:ru":"Кымган уезд","type":"boundary","wikidata":"Q487097"}}]},"id":"node/3730773539"},
{"type":"Feature","geometry":{"type":"Point","coordinates":[128.1863442,38.7405687]},"properties":{"@id":"node/3731405039","@relations":[{"role":"admin_centre","rel":5488132,"reltags":{"admin_level":"6","boundary":"administrative","name":"고성군","name:en":"Kosong County","name:ja":"高城郡","name:ko":"고성군","name:ko_hanja":"高城郡","name:ru":"уезд Косон","name:zh":"高城郡","sorting_name:ru":"Косон уезд","type":"boundary","wikidata":"Q486783"}}]},"id":"node/3731405039"},
{"type":"Feature","geometry":{"type":"Point","coordinates":[125.5328549,39.0781159]},"properties":{"@id":"node/7159708217","@relations":[{"role":"admin_centre","rel":10627378,"reltags":{"admin_level":"6","boundary":"administrative","name":"대동군","name:en":"Taedong County","name:ja":"大同郡","name:ko":"대동군","name:ko_hanja":"大同郡","name:zh":"大同郡","type":"boundary","wikidata":"Q196271"}}]},"id":"node/7159708217"},
{"type":"Feature","geometry":{"type":"Point","coordinates":[125.9786685,38.6248115]},"properties":{"@id":"node/7006869504","@relations":[{"role":"admin_centre","rel":5455422,"reltags":{"admin_level":"6","boundary":"administrative","name":"연탄군","name:en":"Yotan County","name:ja":"燕灘郡","name:ko":"연탄군","name:ko_hanja":"燕灘郡","name:ru":"уезд Йонтхан","name:zh":"燕灘郡","type":"boundary"}}]},"id":"node/7006869504"},
{"type":"Feature","geometry":{"type":"Point","coordinates":[126.90441,38.34679]},"properties":{"@id":"node/5668439338","@relations":[{"role":"admin_centre","rel":8323448,"reltags":{"admin_level":"6","boundary":"administrative","name":"철원군","name:en":"Chorwon County","name:ja":"鉄原郡","name:ko":"철원군","name:ko_hanja":"鐵原郡","name:ru":"уезд Чхорвон","name:zh":"鐵原郡","sorting_name:ru":"Чхорвон уезд","type":"boundary","wikidata":"Q490109"}}]},"id":"node/5668439338"},
{"type":"Feature","geometry":{"type":"Point","coordinates":[127.0820116,38.9765092]},"properties":{"@id":"node/5668439340","@relations":[{"role":"admin_centre","rel":8321389,"reltags":{"admin_level":"6","boundary":"administrative","name":"법동군","name:en":"Poptong County","name:fa":"پاپتانگ","name:ja":"法洞郡","name:ko":"법동군","name:ko_hanja":"法洞郡","name:no":"Poptong","name:pl":"Pŏptong","name:ru":"уезд Поптон","name:vi":"Poptong","name:zh":"法洞郡","sorting_name:ru":"Поптон уезд","type":"boundary","wikidata":"Q486734","wikipedia":"ko:법동군"}}]},"id":"node/5668439340"},
{"type":"Feature","geometry":{"type":"Point","coordinates":[125.8721799,39.2482905]},"properties":{"@id":"node/7778226608","@relations":[{"role":"admin_centre","rel":5453397,"reltags":{"admin_level":"6","boundary":"administrative","name":"평성시","name:en":"Pyŏngsŏng","name:ja":"平城市","name:ko":"평성시","name:ko_hanja":"平城市","name:ru":"Пхёнсон","name:zh":"平城市","type":"boundary","wikidata":"Q514136"}}]},"id":"node/7778226608"},
{"type":"Feature","geometry":{"type":"Point","coordinates":[126.2074613,39.5780742]},"properties":{"@id":"node/7318230495","@relations":[{"role":"admin_centre","rel":10879856,"reltags":{"admin_level":"6","boundary":"administrative","name":"득장지구","name:en":"Tukchang","name:ko":"득장지구","name:ko_hanja":"得將地區","name:ru":"Тыкчан","type":"boundary","wikidata":"Q1133311"}}]},"id":"node/7318230495"},
{"type":"Feature","geometry":{"type":"Point","coordinates":[127.2164976,39.3686773]},"properties":{"@id":"node/5668439339","@relations":[{"role":"admin_centre","rel":8320618,"reltags":{"admin_level":"6","boundary":"administrative","name":"천내군","name:en":"Chonnae County","name:ja":"川内郡","name:ko":"천내군","name:ko_hanja":"川內郡","name:ru":"уезд Чхоннэ","name:zh":"川內郡","sorting_name:ru":"Чхоннэ уезд","type":"boundary","wikidata":"Q486742"}}]},"id":"node/5668439339"},
{"type":"Feature","geometry":{"type":"Point","coordinates":[127.7128458,38.6529914]},"properties":{"@id":"node/5668541785","@relations":[{"role":"admin_centre","rel":8314828,"reltags":{"admin_level":"6","boundary":"administrative","name":"창도군","name:en":"Changdo County","name:ja":"昌道郡","name:ko":"창도군","name:ko_hanja":"昌道郡","name:ru":"уезд Чхандо","name:zh":"昌道郡","sorting_name:ru":"Чхандо уезд","type":"boundary","wikidata":"Q486779"}}]},"id":"node/5668541785"},
{"type":"Feature","geometry":{"type":"Point","coordinates":[127.5986373,38.70906]},"properties":{"@id":"node/5669548377","@relations":[{"role":"admin_centre","rel":8315133,"reltags":{"admin_level":"6","boundary":"administrative","name":"회양군","name:en":"Hoeyang County","name:ja":"淮陽郡","name:ko":"회양군","name:ko_hanja":"淮陽郡","name:ru":"уезд Хвеян","name:zh":"淮陽郡","sorting_name:ru":"Хвеян уезд","type":"boundary","wikidata":"Q490927"}}]},"id":"node/5669548377"},
{"type":"Feature","geometry":{"type":"Point","coordinates":[127.5253808,39.0432862]},"properties":{"@id":"node/5668528422","@relations":[{"role":"admin_centre","rel":7117363,"reltags":{"admin_level":"6","boundary":"administrative","name":"안변군","name:en":"Anbyon County","name:ja":"安辺郡","name:ko":"안변군","name:ko_hanja":"安邊郡","name:ru":"уезд Анбён","name:zh":"安邊郡","sorting_name:ru":"Анбён уезд","type":"boundary","wikidata":"Q484890"}}]},"id":"node/5668528422"},
{"type":"Feature","geometry":{"type":"Point","coordinates":[129.7825241,41.7829291]},"properties":{"@id":"node/5716818224","@relations":[{"role":"admin_centre","rel":8400380,"reltags":{"admin_level":"6","boundary":"administrative","name":"청진시","name:cs":"Čchongdžin","name:el":"Τσόνγκτζιν","name:en":"Chŏngjin","name:eo":"Ĉongĵino","name:ja":"清津市","name:ko":"청진시","name:ko-Hani":"淸津市","name:ru":"Чхонджин","name:zh":"清津市","type":"boundary","wikidata":"Q27249282"}}]},"id":"node/5716818224"}
]}